{
  "type": "FeatureCollection",
  "features": [
    {
      "type": "Feature",
      "properties": {
        "norad_id": 40938,
        "name": "BEIDOU-3S IGSO-2S (C56)",
        "group": "beidou",
        "lat": -1.502435422199707,
        "lon": -100.35550847690985,
        "alt_km": 36039.20999166643,
        "timestamp": "2025-12-19T04:59:48.571286+00:00",
        "meta_object_name": "BEIDOU-3S IGSO-2S (C56)",
        "meta_object_id": "2015-053A",
        "meta_epoch": "2025-12-18T17:10:26.885280",
        "meta_mean_motion": 1.00268888,
        "meta_eccentricity": 0.00604928,
        "meta_inclination": 49.5013,
        "meta_ra_of_asc_node": 260.935,
        "meta_arg_of_pericenter": 188.6507,
        "meta_mean_anomaly": 351.508,
        "meta_ephemeris_type": 0,
        "meta_classification_type": "U",
        "meta_norad_cat_id": 40938,
        "meta_element_set_no": 999,
        "meta_rev_at_epoch": 3754,
        "meta_bstar": 0,
        "meta_mean_motion_dot": -1.17e-06,
        "meta_mean_motion_ddot": 0,
        "tle_line1": "1 40938U 15053A   25352.71558895 -.00000117  00000+0  00000+0 0  9991",
        "tle_line2": "2 40938  49.5013 260.9350 0060492 188.6507 351.5080  1.00268888 37541"
      },
      "geometry": {
        "type": "Point",
        "coordinates": [
          -100.35550847690985,
          -1.502435422199707
        ]
      }
    },
    {
      "type": "Feature",
      "properties": {
        "norad_id": 41434,
        "name": "BEIDOU-2 IGSO-6 (C13)",
        "group": "beidou",
        "lat": -30.821116763255418,
        "lon": -119.96258317488962,
        "alt_km": 35534.07178829917,
        "timestamp": "2025-12-19T04:59:48.571297+00:00",
        "meta_object_name": "BEIDOU-2 IGSO-6 (C13)",
        "meta_object_id": "2016-021A",
        "meta_epoch": "2025-12-18T14:33:38.837664",
        "meta_mean_motion": 1.00292299,
        "meta_eccentricity": 0.00610054,
        "meta_inclination": 59.9732,
        "meta_ra_of_asc_node": 39.8392,
        "meta_arg_of_pericenter": 230.2031,
        "meta_mean_anomaly": 129.1398,
        "meta_ephemeris_type": 0,
        "meta_classification_type": "U",
        "meta_norad_cat_id": 41434,
        "meta_element_set_no": 999,
        "meta_rev_at_epoch": 3566,
        "meta_bstar": 0,
        "meta_mean_motion_dot": -1.41e-06,
        "meta_mean_motion_ddot": 0,
        "tle_line1": "1 41434U 16021A   25352.60669951 -.00000141  00000+0  00000+0 0  9990",
        "tle_line2": "2 41434  59.9732  39.8392 0061005 230.2031 129.1398  1.00292299 35667"
      },
      "geometry": {
        "type": "Point",
        "coordinates": [
          -119.96258317488962,
          -30.821116763255418
        ]
      }
    },
    {
      "type": "Feature",
      "properties": {
        "norad_id": 41586,
        "name": "BEIDOU-2 G7 (C03)",
        "group": "beidou",
        "lat": -0.7921867694932789,
        "lon": -86.57469341666778,
        "alt_km": 35806.20873876477,
        "timestamp": "2025-12-19T04:59:48.571309+00:00",
        "meta_object_name": "BEIDOU-2 G7 (C03)",
        "meta_object_id": "2016-037A",
        "meta_epoch": "2025-12-18T22:22:54.904224",
        "meta_mean_motion": 1.00272356,
        "meta_eccentricity": 0.00051377,
        "meta_inclination": 1.7716,
        "meta_ra_of_asc_node": 67.8373,
        "meta_arg_of_pericenter": 3.1732,
        "meta_mean_anomaly": 102.9604,
        "meta_ephemeris_type": 0,
        "meta_classification_type": "U",
        "meta_norad_cat_id": 41586,
        "meta_element_set_no": 999,
        "meta_rev_at_epoch": 508,
        "meta_bstar": 0,
        "meta_mean_motion_dot": -3.3e-06,
        "meta_mean_motion_ddot": 0,
        "tle_line1": "1 41586U 16037A   25352.93257991 -.00000330  00000+0  00000+0 0  9998",
        "tle_line2": "2 41586   1.7716  67.8373 0005137   3.1732 102.9604  1.00272356  5085"
      },
      "geometry": {
        "type": "Point",
        "coordinates": [
          -86.57469341666778,
          -0.7921867694932789
        ]
      }
    },
    {
      "type": "Feature",
      "properties": {
        "norad_id": 43001,
        "name": "BEIDOU-3 M1 (C19)",
        "group": "beidou",
        "lat": -24.7467717939867,
        "lon": 51.311174981897864,
        "alt_km": 21507.89028612387,
        "timestamp": "2025-12-19T04:59:48.571322+00:00",
        "meta_object_name": "BEIDOU-3 M1 (C19)",
        "meta_object_id": "2017-069A",
        "meta_epoch": "2025-12-18T04:17:57.582816",
        "meta_mean_motion": 1.86231385,
        "meta_eccentricity": 0.00094787,
        "meta_inclination": 56.5315,
        "meta_ra_of_asc_node": 69.054,
        "meta_arg_of_pericenter": 302.4467,
        "meta_mean_anomaly": 57.4905,
        "meta_ephemeris_type": 0,
        "meta_classification_type": "U",
        "meta_norad_cat_id": 43001,
        "meta_element_set_no": 999,
        "meta_rev_at_epoch": 5523,
        "meta_bstar": 0,
        "meta_mean_motion_dot": -6.5e-07,
        "meta_mean_motion_ddot": 0,
        "tle_line1": "1 43001U 17069A   25352.17913869 -.00000065  00000+0  00000+0 0  9992",
        "tle_line2": "2 43001  56.5315  69.0540 0009478 302.4467  57.4905  1.86231385 55235"
      },
      "geometry": {
        "type": "Point",
        "coordinates": [
          51.311174981897864,
          -24.7467717939867
        ]
      }
    },
    {
      "type": "Feature",
      "properties": {
        "norad_id": 43002,
        "name": "BEIDOU-3 M2 (C20)",
        "group": "beidou",
        "lat": 9.374127963294622,
        "lon": 75.33072250642955,
        "alt_km": 21513.355769705482,
        "timestamp": "2025-12-19T04:59:48.571335+00:00",
        "meta_object_name": "BEIDOU-3 M2 (C20)",
        "meta_object_id": "2017-069B",
        "meta_epoch": "2025-12-18T15:42:26.273664",
        "meta_mean_motion": 1.86230996,
        "meta_eccentricity": 0.00064765,
        "meta_inclination": 56.5319,
        "meta_ra_of_asc_node": 69.0743,
        "meta_arg_of_pericenter": 330.8658,
        "meta_mean_anomaly": 29.1292,
        "meta_ephemeris_type": 0,
        "meta_classification_type": "U",
        "meta_norad_cat_id": 43002,
        "meta_element_set_no": 999,
        "meta_rev_at_epoch": 5523,
        "meta_bstar": 0,
        "meta_mean_motion_dot": -6.1e-07,
        "meta_mean_motion_ddot": 0,
        "tle_line1": "1 43002U 17069B   25352.65447076 -.00000061  00000+0  00000+0 0  9994",
        "tle_line2": "2 43002  56.5319  69.0743 0006476 330.8658  29.1292  1.86230996 55239"
      },
      "geometry": {
        "type": "Point",
        "coordinates": [
          75.33072250642955,
          9.374127963294622
        ]
      }
    },
    {
      "type": "Feature",
      "properties": {
        "norad_id": 43107,
        "name": "BEIDOU-3 M7 (C27)",
        "group": "beidou",
        "lat": -3.0197545692247476,
        "lon": 130.72168115963495,
        "alt_km": 21531.865954631772,
        "timestamp": "2025-12-19T04:59:48.571346+00:00",
        "meta_object_name": "BEIDOU-3 M7 (C27)",
        "meta_object_id": "2018-003A",
        "meta_epoch": "2025-12-18T09:32:16.089216",
        "meta_mean_motion": 1.86232527,
        "meta_eccentricity": 0.00028894,
        "meta_inclination": 54.4914,
        "meta_ra_of_asc_node": 308.6174,
        "meta_arg_of_pericenter": 69.2572,
        "meta_mean_anomaly": 290.7611,
        "meta_ephemeris_type": 0,
        "meta_classification_type": "U",
        "meta_norad_cat_id": 43107,
        "meta_element_set_no": 999,
        "meta_rev_at_epoch": 5398,
        "meta_bstar": 0,
        "meta_mean_motion_dot": -8.5e-07,
        "meta_mean_motion_ddot": 0,
        "tle_line1": "1 43107U 18003A   25352.39740844 -.00000085  00000+0  00000+0 0  9995",
        "tle_line2": "2 43107  54.4914 308.6174 0002889  69.2572 290.7611  1.86232527 53988"
      },
      "geometry": {
        "type": "Point",
        "coordinates": [
          130.72168115963495,
          -3.0197545692247476
        ]
      }
    },
    {
      "type": "Feature",
      "properties": {
        "norad_id": 43108,
        "name": "BEIDOU-3 M8 (C28)",
        "group": "beidou",
        "lat": -31.87912336806492,
        "lon": 154.89392814471293,
        "alt_km": 21524.815847345202,
        "timestamp": "2025-12-19T04:59:48.571358+00:00",
        "meta_object_name": "BEIDOU-3 M8 (C28)",
        "meta_object_id": "2018-003B",
        "meta_epoch": "2025-12-17T06:26:34.084320",
        "meta_mean_motion": 1.8623095,
        "meta_eccentricity": 0.00046498,
        "meta_inclination": 54.4854,
        "meta_ra_of_asc_node": 308.6394,
        "meta_arg_of_pericenter": 276.4476,
        "meta_mean_anomaly": 83.4857,
        "meta_ephemeris_type": 0,
        "meta_classification_type": "U",
        "meta_norad_cat_id": 43108,
        "meta_element_set_no": 999,
        "meta_rev_at_epoch": 5397,
        "meta_bstar": 0,
        "meta_mean_motion_dot": -9.2e-07,
        "meta_mean_motion_ddot": 0,
        "tle_line1": "1 43108U 18003B   25351.26845005 -.00000092  00000+0  00000+0 0  9994",
        "tle_line2": "2 43108  54.4854 308.6394 0004649 276.4476  83.4857  1.86230950 53973"
      },
      "geometry": {
        "type": "Point",
        "coordinates": [
          154.89392814471293,
          -31.87912336806492
        ]
      }
    }
  ]
}